[{"OBJECT_NAME":"STARLINK-4423","OBJECT_ID":"2022-084W","EPOCH":"2026-03-09T22:50:21.073056","MEAN_MOTION":15.01261845,"ECCENTRICITY":0.00010006,"INCLINATION":97.6032,"RA_OF_ASC_NODE":130.4582,"ARG_OF_PERICENTER":112.3338,"MEAN_ANOMALY":247.7993,"EPHEMERIS_TYPE":0,"CLASSIFICATION_TYPE":"U","NORAD_CAT_ID":53209,"ELEMENT_SET_NO":999,"REV_AT_EPOCH":19935,"BSTAR":3.0281344e-5,"MEAN_MOTION_DOT":3.31e-6,"MEAN_MOTION_DDOT":0},{"OBJECT_NAME":"PSLV DEB","OBJECT_ID":"2001-049QE","EPOCH":"2026-03-03T09:16:25.774752","MEAN_MOTION":14.97819767,"ECCENTRICITY":0.00185863,"INCLINATION":98.8591,"RA_OF_ASC_NODE":276.9323,"ARG_OF_PERICENTER":25.6411,"MEAN_ANOMALY":334.5725,"EPHEMERIS_TYPE":0,"CLASSIFICATION_TYPE":"U","NORAD_CAT_ID":35346,"ELEMENT_SET_NO":999,"REV_AT_EPOCH":24399,"BSTAR":0.0023148999,"MEAN_MOTION_DOT":0.00027324,"MEAN_MOTION_DDOT":0}]
